ONEWEB-0429             
1 50500U 21132AH  26114.16294287 -.00005391  00000+0 -13725-1 0  9990
2 50500  87.9196 346.2079 0002073  78.2165 281.9200 13.18636817214467
ONEWEB-0430             
1 50501U 21132AJ  26114.15137296  .00000058  00000+0  11475-3 0  9991
2 50501  87.9200 346.2072 0001714  74.2807 285.8514 13.18643691214501
ONEWEB-0432             
1 50502U 21132AK  26114.10979946  .00008625  00000+0  21806-1 0  9998
2 50502  87.9241 346.1845 0002292  91.2618 268.8777 13.18738609214455
ONEWEB-0440             
1 50503U 21132AL  26114.17123684 -.00006422  00000+0 -16352-1 0  9991
2 50503  87.9207 346.1954 0002109  84.8511 275.2862 13.18615859214454
ONEWEB-0450             
1 50504U 21132AM  26114.16473792 -.00004912  00000+0 -12508-1 0  9990
2 50504  87.9196 346.2082 0002653  76.0046 284.1381 13.18629483214481
ONEWEB-0410             
1 51622U 22012A   26114.22666245  .00000073  00000+0  15539-3 0  9995
2 51622  87.9193  16.5730 0001642 125.2816 234.8470 13.17647973206593
ONEWEB-0411             
1 51623U 22012B   26114.18097620  .00000732  00000+0  20618-2 0  9991
2 51623  87.8854  47.0088 0001857  61.0362 299.0951 13.10374165202218
ONEWEB-0415             
1 51624U 22012C   26114.25400755  .00000610  00000+0  17109-2 0  9993
2 51624  87.8851  46.9964 0001778  71.3051 288.8270 13.10374536202221
ONEWEB-0416             
1 51625U 22012D   26114.18927476  .00000610  00000+0  17116-2 0  9998
2 51625  87.8843  47.0287 0001503  71.2549 288.8742 13.10370870202254
ONEWEB-0422             
1 51626U 22012E   26114.23679303  .00000062  00000+0  12642-3 0  9999
2 51626  87.9191  16.5735 0002429  73.7051 286.4347 13.17649523206704
ONEWEB-0423             
1 51627U 22012F   26114.23003468  .00000036  00000+0  59622-4 0  9994
2 51627  87.9190  16.5827 0001976  79.3221 280.8133 13.17647977206592
ONEWEB-0425             
1 51628U 22012G   26114.19922567  .00000256  00000+0  69613-3 0  9994
2 51628  87.8853  47.0080 0001791  89.9967 270.1365 13.10368871202251
ONEWEB-0428             
1 51629U 22012H   26114.25567337  .00000682  00000+0  19179-2 0  9996
2 51629  87.8846  47.0055 0001972  78.4971 281.6378 13.10373849202224
ONEWEB-0431             
1 51630U 22012J   26114.22563378 -.00000624  00000+0 -18253-2 0  9996
2 51630  87.8853  47.0002 0001996  59.0220 301.1104 13.10374090202273
ONEWEB-0434             
1 51631U 22012K   26114.27903456  .00000123  00000+0  31489-3 0  9996
2 51631  87.8845  47.0160 0001841  99.4419 260.6916 13.10368815202264
ONEWEB-0435             
1 51632U 22012L   26114.28718572 -.00000372  00000+0 -11031-2 0  9999
2 51632  87.8845  47.0024 0002114  78.3683 281.7682 13.10369102202250
