[{"OBJECT_NAME":"ONEWEB-0429","OBJECT_ID":"2021-132AH","EPOCH":"2026-04-24T03:54:38.263968","MEAN_MOTION":13.18636817,"ECCENTRICITY":0.0002073,"INCLINATION":87.9196,"RA_OF_ASC_NODE":346.2079,"ARG_OF_PERICENTER":78.2165,"MEAN_ANOMALY":281.92,"EPHEMERIS_TYPE":0,"CLASSIFICATION_TYPE":"U","NORAD_CAT_ID":50500,"ELEMENT_SET_NO":999,"REV_AT_EPOCH":21446,"BSTAR":-0.013725000000000001,"MEAN_MOTION_DOT":-5.391e-05,"MEAN_MOTION_DDOT":0.0},{"OBJECT_NAME":"ONEWEB-0430","OBJECT_ID":"2021-132AJ","EPOCH":"2026-04-24T03:37:58.623744","MEAN_MOTION":13.18643691,"ECCENTRICITY":0.0001714,"INCLINATION":87.92,"RA_OF_ASC_NODE":346.2072,"ARG_OF_PERICENTER":74.2807,"MEAN_ANOMALY":285.8514,"EPHEMERIS_TYPE":0,"CLASSIFICATION_TYPE":"U","NORAD_CAT_ID":50501,"ELEMENT_SET_NO":999,"REV_AT_EPOCH":21450,"BSTAR":0.00011475000000000001,"MEAN_MOTION_DOT":5.8e-07,"MEAN_MOTION_DDOT":0.0},{"OBJECT_NAME":"ONEWEB-0432","OBJECT_ID":"2021-132AK","EPOCH":"2026-04-24T02:38:06.673344","MEAN_MOTION":13.18738609,"ECCENTRICITY":0.0002292,"INCLINATION":87.9241,"RA_OF_ASC_NODE":346.1845,"ARG_OF_PERICENTER":91.2618,"MEAN_ANOMALY":268.8777,"EPHEMERIS_TYPE":0,"CLASSIFICATION_TYPE":"U","NORAD_CAT_ID":50502,"ELEMENT_SET_NO":999,"REV_AT_EPOCH":21445,"BSTAR":0.021806000000000002,"MEAN_MOTION_DOT":8.625e-05,"MEAN_MOTION_DDOT":0.0},{"OBJECT_NAME":"ONEWEB-0440","OBJECT_ID":"2021-132AL","EPOCH":"2026-04-24T04:06:34.862976","MEAN_MOTION":13.18615859,"ECCENTRICITY":0.0002109,"INCLINATION":87.9207,"RA_OF_ASC_NODE":346.1954,"ARG_OF_PERICENTER":84.8511,"MEAN_ANOMALY":275.2862,"EPHEMERIS_TYPE":0,"CLASSIFICATION_TYPE":"U","NORAD_CAT_ID":50503,"ELEMENT_SET_NO":999,"REV_AT_EPOCH":21445,"BSTAR":-0.016352000000000002,"MEAN_MOTION_DOT":-6.422e-05,"MEAN_MOTION_DDOT":0.0},{"OBJECT_NAME":"ONEWEB-0450","OBJECT_ID":"2021-132AM","EPOCH":"2026-04-24T03:57:13.356288","MEAN_MOTION":13.18629483,"ECCENTRICITY":0.0002653,"INCLINATION":87.9196,"RA_OF_ASC_NODE":346.2082,"ARG_OF_PERICENTER":76.0046,"MEAN_ANOMALY":284.1381,"EPHEMERIS_TYPE":0,"CLASSIFICATION_TYPE":"U","NORAD_CAT_ID":50504,"ELEMENT_SET_NO":999,"REV_AT_EPOCH":21448,"BSTAR":-0.012508,"MEAN_MOTION_DOT":-4.912e-05,"MEAN_MOTION_DDOT":0.0},{"OBJECT_NAME":"ONEWEB-0410","OBJECT_ID":"2022-012A","EPOCH":"2026-04-24T05:26:23.635680","MEAN_MOTION":13.17647973,"ECCENTRICITY":0.0001642,"INCLINATION":87.9193,"RA_OF_ASC_NODE":16.573,"ARG_OF_PERICENTER":125.2816,"MEAN_ANOMALY":234.847,"EPHEMERIS_TYPE":0,"CLASSIFICATION_TYPE":"U","NORAD_CAT_ID":51622,"ELEMENT_SET_NO":999,"REV_AT_EPOCH":20659,"BSTAR":0.00015539000000000001,"MEAN_MOTION_DOT":7.3e-07,"MEAN_MOTION_DDOT":0.0},{"OBJECT_NAME":"ONEWEB-0411","OBJECT_ID":"2022-012B","EPOCH":"2026-04-24T04:20:36.343680","MEAN_MOTION":13.10374165,"ECCENTRICITY":0.0001857,"INCLINATION":87.8854,"RA_OF_ASC_NODE":47.0088,"ARG_OF_PERICENTER":61.0362,"MEAN_ANOMALY":299.0951,"EPHEMERIS_TYPE":0,"CLASSIFICATION_TYPE":"U","NORAD_CAT_ID":51623,"ELEMENT_SET_NO":999,"REV_AT_EPOCH":20221,"BSTAR":0.0020618,"MEAN_MOTION_DOT":7.32e-06,"MEAN_MOTION_DDOT":0.0},{"OBJECT_NAME":"ONEWEB-0415","OBJECT_ID":"2022-012C","EPOCH":"2026-04-24T06:05:46.252320","MEAN_MOTION":13.10374536,"ECCENTRICITY":0.0001778,"INCLINATION":87.8851,"RA_OF_ASC_NODE":46.9964,"ARG_OF_PERICENTER":71.3051,"MEAN_ANOMALY":288.827,"EPHEMERIS_TYPE":0,"CLASSIFICATION_TYPE":"U","NORAD_CAT_ID":51624,"ELEMENT_SET_NO":999,"REV_AT_EPOCH":20222,"BSTAR":0.0017109,"MEAN_MOTION_DOT":6.1e-06,"MEAN_MOTION_DDOT":0.0},{"OBJECT_NAME":"ONEWEB-0416","OBJECT_ID":"2022-012D","EPOCH":"2026-04-24T04:32:33.339264","MEAN_MOTION":13.1037087,"ECCENTRICITY":0.0001503,"INCLINATION":87.8843,"RA_OF_ASC_NODE":47.0287,"ARG_OF_PERICENTER":71.2549,"MEAN_ANOMALY":288.8742,"EPHEMERIS_TYPE":0,"CLASSIFICATION_TYPE":"U","NORAD_CAT_ID":51625,"ELEMENT_SET_NO":999,"REV_AT_EPOCH":20225,"BSTAR":0.0017116000000000002,"MEAN_MOTION_DOT":6.1e-06,"MEAN_MOTION_DDOT":0.0},{"OBJECT_NAME":"ONEWEB-0422","OBJECT_ID":"2022-012E","EPOCH":"2026-04-24T05:40:58.917792","MEAN_MOTION":13.17649523,"ECCENTRICITY":0.0002429,"INCLINATION":87.9191,"RA_OF_ASC_NODE":16.5735,"ARG_OF_PERICENTER":73.7051,"MEAN_ANOMALY":286.4347,"EPHEMERIS_TYPE":0,"CLASSIFICATION_TYPE":"U","NORAD_CAT_ID":51626,"ELEMENT_SET_NO":999,"REV_AT_EPOCH":20670,"BSTAR":0.00012642,"MEAN_MOTION_DOT":6.2e-07,"MEAN_MOTION_DDOT":0.0},{"OBJECT_NAME":"ONEWEB-0423","OBJECT_ID":"2022-012F","EPOCH":"2026-04-24T05:31:14.996352","MEAN_MOTION":13.17647977,"ECCENTRICITY":0.0001976,"INCLINATION":87.919,"RA_OF_ASC_NODE":16.5827,"ARG_OF_PERICENTER":79.3221,"MEAN_ANOMALY":280.8133,"EPHEMERIS_TYPE":0,"CLASSIFICATION_TYPE":"U","NORAD_CAT_ID":51627,"ELEMENT_SET_NO":999,"REV_AT_EPOCH":20659,"BSTAR":5.9622e-05,"MEAN_MOTION_DOT":3.6e-07,"MEAN_MOTION_DDOT":0.0},{"OBJECT_NAME":"ONEWEB-0425","OBJECT_ID":"2022-012G","EPOCH":"2026-04-24T04:46:53.097888","MEAN_MOTION":13.10368871,"ECCENTRICITY":0.0001791,"INCLINATION":87.8853,"RA_OF_ASC_NODE":47.008,"ARG_OF_PERICENTER":89.9967,"MEAN_ANOMALY":270.1365,"EPHEMERIS_TYPE":0,"CLASSIFICATION_TYPE":"U","NORAD_CAT_ID":51628,"ELEMENT_SET_NO":999,"REV_AT_EPOCH":20225,"BSTAR":0.00069613,"MEAN_MOTION_DOT":2.56e-06,"MEAN_MOTION_DDOT":0.0},{"OBJECT_NAME":"ONEWEB-0428","OBJECT_ID":"2022-012H","EPOCH":"2026-04-24T06:08:10.179168","MEAN_MOTION":13.10373849,"ECCENTRICITY":0.0001972,"INCLINATION":87.8846,"RA_OF_ASC_NODE":47.0055,"ARG_OF_PERICENTER":78.4971,"MEAN_ANOMALY":281.6378,"EPHEMERIS_TYPE":0,"CLASSIFICATION_TYPE":"U","NORAD_CAT_ID":51629,"ELEMENT_SET_NO":999,"REV_AT_EPOCH":20222,"BSTAR":0.0019179,"MEAN_MOTION_DOT":6.82e-06,"MEAN_MOTION_DDOT":0.0},{"OBJECT_NAME":"ONEWEB-0431","OBJECT_ID":"2022-012J","EPOCH":"2026-04-24T05:24:54.758592","MEAN_MOTION":13.1037409,"ECCENTRICITY":0.0001996,"INCLINATION":87.8853,"RA_OF_ASC_NODE":47.0002,"ARG_OF_PERICENTER":59.022,"MEAN_ANOMALY":301.1104,"EPHEMERIS_TYPE":0,"CLASSIFICATION_TYPE":"U","NORAD_CAT_ID":51630,"ELEMENT_SET_NO":999,"REV_AT_EPOCH":20227,"BSTAR":-0.0018253,"MEAN_MOTION_DOT":-6.24e-06,"MEAN_MOTION_DDOT":0.0},{"OBJECT_NAME":"ONEWEB-0434","OBJECT_ID":"2022-012K","EPOCH":"2026-04-24T06:41:48.585984","MEAN_MOTION":13.10368815,"ECCENTRICITY":0.0001841,"INCLINATION":87.8845,"RA_OF_ASC_NODE":47.016,"ARG_OF_PERICENTER":99.4419,"MEAN_ANOMALY":260.6916,"EPHEMERIS_TYPE":0,"CLASSIFICATION_TYPE":"U","NORAD_CAT_ID":51631,"ELEMENT_SET_NO":999,"REV_AT_EPOCH":20226,"BSTAR":0.00031489,"MEAN_MOTION_DOT":1.23e-06,"MEAN_MOTION_DDOT":0.0},{"OBJECT_NAME":"ONEWEB-0435","OBJECT_ID":"2022-012L","EPOCH":"2026-04-24T06:53:32.846208","MEAN_MOTION":13.10369102,"ECCENTRICITY":0.0002114,"INCLINATION":87.8845,"RA_OF_ASC_NODE":47.0024,"ARG_OF_PERICENTER":78.3683,"MEAN_ANOMALY":281.7682,"EPHEMERIS_TYPE":0,"CLASSIFICATION_TYPE":"U","NORAD_CAT_ID":51632,"ELEMENT_SET_NO":999,"REV_AT_EPOCH":20225,"BSTAR":-0.0011031,"MEAN_MOTION_DOT":-3.72e-06,"MEAN_MOTION_DDOT":0.0}]